APRIZESAT 9             
1 40018U 14033J   17346.24403611  .00000067  00000-0  18728-4 0  9999
2 40018  97.8167 216.4108 0072921 100.6358 260.3071 14.69844040186643
